H1 CPF 01  gfz 2021 08 04 12  7162 terrasarx 
H2 0702601  6201 31698    2021 08 04 12 59 42 2021 08 09 00 00 42   120 1 1  0 0 0
H9
10 0 59431  76302.000000  0   -4277035.113   3972005.275   3649610.937
10 0 59431  76422.000000  0   -4456879.116   4403710.970   2855080.507
10 0 59431  76542.000000  0   -4551887.786   4760817.801   2010268.617
10 0 59431  76662.000000  0   -4561770.954   5035592.089   1130051.547
10 0 59431  76782.000000  0   -4487863.001   5221763.715    229933.648
10 0 59431  76902.000000  0   -4333074.457   5314667.368   -674232.891
10 0 59431  77022.000000  0   -4101810.735   5311353.154  -1566537.778
10 0 59431  77142.000000  0   -3799858.469   5210658.699  -2431302.384
10 0 59431  77262.000000  0   -3434246.159   5013247.329  -3253361.662
10 0 59431  77382.000000  0   -3013081.227   4721607.384  -4018334.762
10 0 59431  77502.000000  0   -2545368.921   4340014.982  -4712875.738
10 0 59431  77622.000000  0   -2040818.125   3874463.255  -5324900.962
10 0 59431  77742.000000  0   -1509639.579   3332561.211  -5843791.613
10 0 59431  77862.000000  0    -962339.357   2723402.007  -6260569.315
10 0 59431  77982.000000  0    -409512.088   2057404.143  -6568040.351
10 0 59431  78102.000000  0     138361.009   1346130.944  -6760908.007
10 0 59431  78222.000000  0     671105.799    602090.597  -6835854.655
10 0 59431  78342.000000  0    1179040.050   -161480.055  -6791593.484
10 0 59431  78462.000000  0    1653145.448   -930846.770  -6628887.224
10 0 59431  78582.000000  0    2085223.327  -1692018.519  -6350535.408
10 0 59431  78702.000000  0    2468034.259  -2430995.285  -5961331.723
10 0 59431  78822.000000  0    2795418.862  -3134020.413  -5467991.443
10 0 59431  78942.000000  0    3062399.381  -3787836.770  -4879047.265
10 0 59431  79062.000000  0    3265257.590  -4379938.105  -4204710.430
10 0 59431  79182.000000  0    3401587.749  -4898810.176  -3456704.052
10 0 59431  79302.000000  0    3470325.993  -5334161.071  -2648069.419
10 0 59431  79422.000000  0    3471752.832  -5677134.527  -1792943.310
10 0 59431  79542.000000  0    3407468.365  -5920497.764   -906311.709
10 0 59431  79662.000000  0    3280340.561  -6058801.418     -3744.068
10 0 59431  79782.000000  0    3094425.797  -6088504.423    898886.692
10 0 59431  79902.000000  0    2854865.664  -6008062.451   1785690.643
10 0 59431  80022.000000  0    2567761.572  -5817975.569   2641051.190
10 0 59431  80142.000000  0    2240029.081  -5520792.953   3449908.250
10 0 59431  80262.000000  0    1879237.795  -5121077.308   4198028.650
10 0 59431  80382.000000  0    1493440.569  -4625329.964   4872260.507
10 0 59431  80502.000000  0    1090996.947  -4041877.691   5460765.420
10 0 59431  80622.000000  0     680393.236  -3380724.129   5953226.098
10 0 59431  80742.000000  0     270064.032  -2653368.606   6341021.805
10 0 59431  80862.000000  0    -131779.520  -1872600.004   6617372.075
10 0 59431  80982.000000  0    -517312.018  -1052268.776   6777448.803
10 0 59431  81102.000000  0    -879244.755   -207039.778   6818456.714
10 0 59431  81222.000000  0   -1210962.468    647870.821   6739679.324
10 0 59431  81342.000000  0   -1506643.772   1496969.066   6542490.286
10 0 59431  81462.000000  0   -1761363.189   2324763.036   6230330.931
10 0 59431  81582.000000  0   -1971173.846   3116045.333   5808654.061
10 0 59431  81702.000000  0   -2133168.914   3856173.647   5284833.893
10 0 59431  81822.000000  0   -2245521.468   4531345.208   4668044.315
10 0 59431  81942.000000  0   -2307502.039   5128860.811   3969103.935
10 0 59431  82062.000000  0   -2319472.769   5637371.961   3200290.040
10 0 59431  82182.000000  0   -2282858.291   6047104.931   2375123.417
10 0 59431  82302.000000  0   -2200093.810   6350056.890   1508129.026
10 0 59431  82422.000000  0   -2074551.087   6540159.618    614575.796
10 0 59431  82542.000000  0   -1910444.292   6613405.977   -289798.918
10 0 59431  82662.000000  0   -1712718.447   6567936.251  -1189074.927
10 0 59431  82782.000000  0   -1486922.320   6404081.207  -2067441.034
10 0 59431  82902.000000  0   -1239068.721   6124355.882  -2909482.302
10 0 59431  83022.000000  0    -975488.032   5733410.969  -3700453.476
10 0 59431  83142.000000  0    -702678.356   5237945.146  -4426537.874
10 0 59431  83262.000000  0    -427155.723   4646577.982  -5075086.395
10 0 59431  83382.000000  0    -155307.374   3969689.069  -5634831.871
10 0 59431  83502.000000  0     106748.699   3219226.059  -6096077.081
10 0 59431  83622.000000  0     353294.429   2408485.589  -6450852.137
10 0 59431  83742.000000  0     579129.612   1551874.132  -6693040.070
10 0 59431  83862.000000  0     779676.370    664652.868  -6818472.572
10 0 59431  83982.000000  0     951067.744   -237330.922  -6824993.989
10 0 59431  84102.000000  0    1090219.365  -1137921.779  -6712493.910
10 0 59431  84222.000000  0    1194883.184  -2020938.039  -6482907.065
10 0 59431  84342.000000  0    1263683.232  -2870454.191  -6140184.081
10 0 59431  84462.000000  0    1296133.290  -3671083.278  -5690232.952
10 0 59431  84582.000000  0    1292634.214  -4408255.509  -5140827.074
10 0 59431  84702.000000  0    1254453.041  -5068484.391  -4501480.988
10 0 59431  84822.000000  0    1183683.106  -5639618.776  -3783297.479
10 0 59431  84942.000000  0    1083184.905  -6111075.815  -2998783.728
10 0 59431  85062.000000  0     956509.869  -6474047.992  -2161639.887
10 0 59431  85182.000000  0     807808.374  -6721680.362  -1286522.702
10 0 59431  85302.000000  0     641723.000  -6849212.006   -388787.269
10 0 59431  85422.000000  0     463270.022  -6854076.760    515787.191
10 0 59431  85542.000000  0     277712.220  -6735961.471   1411281.318
10 0 59431  85662.000000  0      90426.080  -6496819.756   2281924.635
10 0 59431  85782.000000  0     -93233.197  -6140839.304   3112383.470
10 0 59431  85902.000000  0    -268065.424  -5674361.863   3888039.541
10 0 59431  86022.000000  0    -429154.722  -5105761.358   4595250.719
10 0 59431  86142.000000  0    -571990.559  -4445284.488   5221593.194
10 0 59431  86262.000000  0    -692577.566  -3704856.195   5756078.912
10 0 59431  86382.000000  0    -787532.220  -2897854.432   6189346.130
10 0 59432    102.000000  0    -854164.003  -2038859.397   6513816.658
10 0 59432    222.000000  0    -890539.595  -1143386.390   6723820.740
10 0 59432    342.000000  0    -895529.662   -227603.938   6815691.519
10 0 59432    462.000000  0    -868837.539    691959.089   6787825.504
10 0 59432    582.000000  0    -811007.742   1598711.462   6640708.853
10 0 59432    702.000000  0    -723414.721   2476298.342   6376909.292
10 0 59432    822.000000  0    -608232.640   3308895.973   6001034.159
10 0 59432    942.000000  0    -468386.825   4081498.605   5519654.919
10 0 59432   1062.000000  0    -307487.222   4780192.223   4941197.728
10 0 59432   1182.000000  0    -129745.074   5392411.844   4275802.872
10 0 59432   1302.000000  0      60126.078   5907175.804   3535149.761
10 0 59432   1422.000000  0     257021.635   6315290.238   2732257.425
10 0 59432   1542.000000  0     455568.524   6609529.269   1881255.642
10 0 59432   1662.000000  0     650257.123   6784770.407    997129.248
10 0 59432   1782.000000  0     835577.153   6838089.120     95448.289
10 0 59432   1902.000000  0    1006155.494   6768810.161   -807914.261
10 0 59432   2022.000000  0    1156890.817   6578513.044  -1697070.681
10 0 59432   2142.000000  0    1283082.000   6270993.040  -2556405.334
10 0 59432   2262.000000  0    1380547.723   5852178.589  -3370855.067
10 0 59432   2382.000000  0    1445734.419   5330006.893  -4126176.839
10 0 59432   2502.000000  0    1475810.014   4714261.475  -4809196.907
10 0 59432   2622.000000  0    1468741.078   4016376.418  -5408036.102
10 0 59432   2742.000000  0    1423351.790   3249214.369  -5912308.459
10 0 59432   2862.000000  0    1339363.982   2426821.777  -6313291.954
10 0 59432   2982.000000  0    1217417.254   1564167.370  -6604067.091
10 0 59432   3102.000000  0    1059070.049    676870.745  -6779625.538
10 0 59432   3222.000000  0     866781.069   -219077.415  -6836948.052
10 0 59432   3342.000000  0     643871.402  -1107598.468  -6775050.057
10 0 59432   3462.000000  0     394467.970  -1972807.108  -6594995.063
10 0 59432   3582.000000  0     123429.959  -2799286.817  -6299878.803
10 0 59432   3702.000000  0    -163742.603  -3572360.285  -5894783.874
10 0 59432   3822.000000  0    -461015.867  -4278348.304  -5386700.222
10 0 59432   3942.000000  0    -761942.723  -4904812.788  -4784415.821
10 0 59432   4062.000000  0   -1059796.408  -5440781.521  -4098376.314
10 0 59432   4182.000000  0   -1347714.477  -5876949.209  -3340513.840
10 0 59432   4302.000000  0   -1618849.817  -6205849.829  -2524047.129
10 0 59432   4422.000000  0   -1866525.724  -6421996.797  -1663255.797
10 0 59432   4542.000000  0   -2084391.320  -6521986.992   -773230.997
10 0 59432   4662.000000  0   -2266573.302  -6504564.364    130392.937
10 0 59432   4782.000000  0   -2407820.375  -6370640.370   1031719.885
10 0 59432   4902.000000  0   -2503636.249  -6123270.585   1914880.052
10 0 59432   5022.000000  0   -2550397.592  -5767587.793   2764318.652
10 0 59432   5142.000000  0   -2545453.550  -5310693.051   3565078.257
10 0 59432   5262.000000  0   -2487204.260  -4761508.027   4303068.185
10 0 59432   5382.000000  0   -2375157.138  -4130593.366   4965315.532
10 0 59432   5502.000000  0   -2209960.279  -3429937.475   5540194.309
10 0 59432   5622.000000  0   -1993410.836  -2672719.311   6017627.382
10 0 59432   5742.000000  0   -1728438.602  -1873053.987   6389257.788
10 0 59432   5862.000000  0   -1419066.141  -1045725.693   6648589.764
10 0 59432   5982.000000  0   -1070346.736   -205910.513   6791096.047
10 0 59432   6102.000000  0    -688281.916    631102.164   6814290.364
10 0 59432   6222.000000  0    -279718.329   1450186.879   6717768.941
10 0 59432   6342.000000  0     147774.974   2236655.169   6503217.339
99
